[{"OBJECT_NAME":"KORSAT-7","OBJECT_ID":"2023-185B","EPOCH":"2026-03-09T23:44:55.136256","MEAN_MOTION":15.00898391,"ECCENTRICITY":0.00224341,"INCLINATION":97.6243,"RA_OF_ASC_NODE":135.089,"ARG_OF_PERICENTER":307.6562,"MEAN_ANOMALY":52.2627,"EPHEMERIS_TYPE":0,"CLASSIFICATION_TYPE":"U","NORAD_CAT_ID":58463,"ELEMENT_SET_NO":999,"REV_AT_EPOCH":12440,"BSTAR":0.00023536002,"MEAN_MOTION_DOT":2.951e-5,"MEAN_MOTION_DDOT":0},{"OBJECT_NAME":"STARLINK-34546","OBJECT_ID":"2025-142Y","EPOCH":"2026-03-09T22:44:53.642112","MEAN_MOTION":14.98327234,"ECCENTRICITY":0.00023811,"INCLINATION":70.0017,"RA_OF_ASC_NODE":313.6364,"ARG_OF_PERICENTER":265.7036,"MEAN_ANOMALY":94.3851,"EPHEMERIS_TYPE":0,"CLASSIFICATION_TYPE":"U","NORAD_CAT_ID":64718,"ELEMENT_SET_NO":999,"REV_AT_EPOCH":3969,"BSTAR":0.00011740333,"MEAN_MOTION_DOT":1.308e-5,"MEAN_MOTION_DDOT":0}]
